[ {"OBJECT_NAME": "SBIRS GEO-1 (USA 230)", "NORAD_CAT_ID": 37481, "MEAN_MOTION": 1.00272243, "ECCENTRICITY": 0.0002305, "INCLINATION": 4.3233, "RA_OF_ASC_NODE": 53.0978, "ARG_OF_PERICENTER": 295.8387, "MEAN_ANOMALY": 289.8228, "BSTAR": 0.0, "EPOCH": "2026-03-12T03:48:38"}, {"OBJECT_NAME": "SBIRS GEO-2 (USA 241)", "NORAD_CAT_ID": 39120, "MEAN_MOTION": 1.00271763, "ECCENTRICITY": 0.0002239, "INCLINATION": 4.2783, "RA_OF_ASC_NODE": 52.3911, "ARG_OF_PERICENTER": 297.2305, "MEAN_ANOMALY": 101.366, "BSTAR": 0.0, "EPOCH": "2026-03-11T22:04:54"}, {"OBJECT_NAME": "SBIRS GEO-4 (USA 273)", "NORAD_CAT_ID": 41937, "MEAN_MOTION": 1.00273025, "ECCENTRICITY": 0.0002308, "INCLINATION": 2.0621, "RA_OF_ASC_NODE": 40.311, "ARG_OF_PERICENTER": 316.052, "MEAN_ANOMALY": 243.2237, "BSTAR": 0.0, "EPOCH": "2026-03-12T03:15:38"}, {"OBJECT_NAME": "SBIRS GEO-5 (USA 315)", "NORAD_CAT_ID": 48618, "MEAN_MOTION": 1.00271937, "ECCENTRICITY": 0.000127, "INCLINATION": 5.228, "RA_OF_ASC_NODE": 328.3802, "ARG_OF_PERICENTER": 27.6658, "MEAN_ANOMALY": 211.6504, "BSTAR": 0.0, "EPOCH": "2026-03-11T20:17:41"}, {"OBJECT_NAME": "SBIRS GEO-6 (USA 336)", "NORAD_CAT_ID": 53355, "MEAN_MOTION": 1.00272445, "ECCENTRICITY": 0.0002129, "INCLINATION": 3.4254, "RA_OF_ASC_NODE": 315.9281, "ARG_OF_PERICENTER": 37.5335, "MEAN_ANOMALY": 299.8346, "BSTAR": 0.0, "EPOCH": "2026-03-11T22:58:49"}, {"OBJECT_NAME": "BEIDOU-2 IGSO-6 (C13)", "NORAD_CAT_ID": 41434, "MEAN_MOTION": 1.00277411, "ECCENTRICITY": 0.0059566, "INCLINATION": 60.0969, "RA_OF_ASC_NODE": 39.005, "ARG_OF_PERICENTER": 233.2714, "MEAN_ANOMALY": 308.7278, "BSTAR": 0.0, "EPOCH": "2026-03-11T21:02:52"}, {"OBJECT_NAME": "BEIDOU-2 IGSO-7 (C16)", "NORAD_CAT_ID": 43539, "MEAN_MOTION": 1.00281075, "ECCENTRICITY": 0.0100539, "INCLINATION": 55.1863, "RA_OF_ASC_NODE": 163.9124, "ARG_OF_PERICENTER": 236.8206, "MEAN_ANOMALY": 121.4718, "BSTAR": 0.0, "EPOCH": "2026-03-11T16:00:50"}, {"OBJECT_NAME": "BEIDOU-3 IGSO-1 (C38)", "NORAD_CAT_ID": 44204, "MEAN_MOTION": 1.00269078, "ECCENTRICITY": 0.0025765, "INCLINATION": 58.5642, "RA_OF_ASC_NODE": 38.6507, "ARG_OF_PERICENTER": 236.085, "MEAN_ANOMALY": 305.5935, "BSTAR": 0.0, "EPOCH": "2026-03-11T19:27:27"}, {"OBJECT_NAME": "BEIDOU-3 IGSO-2 (C39)", "NORAD_CAT_ID": 44337, "MEAN_MOTION": 1.00247364, "ECCENTRICITY": 0.0038734, "INCLINATION": 55.2338, "RA_OF_ASC_NODE": 159.8353, "ARG_OF_PERICENTER": 206.4752, "MEAN_ANOMALY": 153.7223, "BSTAR": 0.0, "EPOCH": "2026-02-26T16:31:51"}, {"OBJECT_NAME": "BEIDOU-3 IGSO-3 (C40)", "NORAD_CAT_ID": 44709, "MEAN_MOTION": 1.00267242, "ECCENTRICITY": 0.0040728, "INCLINATION": 54.9673, "RA_OF_ASC_NODE": 281.9576, "ARG_OF_PERICENTER": 188.7089, "MEAN_ANOMALY": 171.2538, "BSTAR": 0.0, "EPOCH": "2026-03-10T23:36:11"}, {"OBJECT_NAME": "BEIDOU-2 IGSO-1 (C06)", "NORAD_CAT_ID": 36828, "MEAN_MOTION": 1.00250567, "ECCENTRICITY": 0.0054287, "INCLINATION": 54.2928, "RA_OF_ASC_NODE": 163.8447, "ARG_OF_PERICENTER": 219.289, "MEAN_ANOMALY": 157.8366, "BSTAR": 0.0, "EPOCH": "2026-03-11T17:48:22"}, {"OBJECT_NAME": "BEIDOU-2 IGSO-2 (C07)", "NORAD_CAT_ID": 37256, "MEAN_MOTION": 1.00257833, "ECCENTRICITY": 0.004749, "INCLINATION": 47.7215, "RA_OF_ASC_NODE": 273.0501, "ARG_OF_PERICENTER": 213.2827, "MEAN_ANOMALY": 326.5355, "BSTAR": 0.0, "EPOCH": "2026-03-10T11:51:55"}, {"OBJECT_NAME": "BEIDOU-2 IGSO-3 (C08)", "NORAD_CAT_ID": 37384, "MEAN_MOTION": 1.00293315, "ECCENTRICITY": 0.0035062, "INCLINATION": 62.2726, "RA_OF_ASC_NODE": 41.1265, "ARG_OF_PERICENTER": 190.7769, "MEAN_ANOMALY": 297.326, "BSTAR": 0.0, "EPOCH": "2026-03-05T17:18:14"}, {"OBJECT_NAME": "BEIDOU-2 IGSO-4 (C09)", "NORAD_CAT_ID": 37763, "MEAN_MOTION": 1.00264489, "ECCENTRICITY": 0.0155038, "INCLINATION": 54.5893, "RA_OF_ASC_NODE": 166.5556, "ARG_OF_PERICENTER": 231.0545, "MEAN_ANOMALY": 122.5808, "BSTAR": 0.0, "EPOCH": "2026-03-11T17:06:29"}, {"OBJECT_NAME": "BEIDOU-2 IGSO-5 (C10)", "NORAD_CAT_ID": 37948, "MEAN_MOTION": 1.0027123, "ECCENTRICITY": 0.0108779, "INCLINATION": 47.8556, "RA_OF_ASC_NODE": 272.7511, "ARG_OF_PERICENTER": 221.1293, "MEAN_ANOMALY": 317.8974, "BSTAR": 0.0, "EPOCH": "2026-03-11T12:30:03"}, {"OBJECT_NAME": "BEIDOU-3S IGSO-1S (C31)", "NORAD_CAT_ID": 40549, "MEAN_MOTION": 1.00272878, "ECCENTRICITY": 0.0035532, "INCLINATION": 49.3768, "RA_OF_ASC_NODE": 296.637, "ARG_OF_PERICENTER": 190.3587, "MEAN_ANOMALY": 351.9385, "BSTAR": 0.0, "EPOCH": "2026-03-11T14:13:00"}, {"OBJECT_NAME": "LUCH 5A (SDCM/PRN 140)", "NORAD_CAT_ID": 37951, "MEAN_MOTION": 1.00268917, "ECCENTRICITY": 0.0003469, "INCLINATION": 8.5056, "RA_OF_ASC_NODE": 75.2345, "ARG_OF_PERICENTER": 261.676, "MEAN_ANOMALY": 295.0489, "BSTAR": 0.0, "EPOCH": "2026-03-11T19:41:25"}, {"OBJECT_NAME": "LUCH 5B (SDCM/PRN 125)", "NORAD_CAT_ID": 38977, "MEAN_MOTION": 1.00272061, "ECCENTRICITY": 0.0003301, "INCLINATION": 10.2747, "RA_OF_ASC_NODE": 50.8258, "ARG_OF_PERICENTER": 227.837, "MEAN_ANOMALY": 311.7381, "BSTAR": 0.0, "EPOCH": "2026-03-12T05:07:25"}, {"OBJECT_NAME": "LUCH 5V (SDCM/PRN 141)", "NORAD_CAT_ID": 39727, "MEAN_MOTION": 1.00269843, "ECCENTRICITY": 0.0003131, "INCLINATION": 4.8928, "RA_OF_ASC_NODE": 70.6943, "ARG_OF_PERICENTER": 295.3056, "MEAN_ANOMALY": 265.5873, "BSTAR": 0.0, "EPOCH": "2026-03-12T00:28:51"}]