BEIDOU-2 IGSO-1         
1 36828U 10036A   26070.74192463 -.00000134  00000+0  00000+0 0  9995
2 36828  54.2928 163.8447 0054287 219.2890 157.8366  1.00250567 57126
BEIDOU-2 IGSO-2         
1 37256U 10068A   26069.49439653 -.00000157  00000+0  00000+0 0  9996
2 37256  47.7215 273.0501 0047490 213.2827 326.5355  1.00257833 55804
BEIDOU-2 IGSO-3         
1 37384U 11013A   26064.72099782 -.00000170  00000+0  00000+0 0  9990
2 37384  62.2726  41.1265 0035062 190.7769 297.3260  1.00293315 54626
SBIRS GEO-1 (USA 230)   
1 37481U 11019A   26071.15878330  .00000102  00000+0  00000+0 0  9997
2 37481   4.3233  53.0978 0002305 295.8387 289.8228  1.00272243 54429
BEIDOU-2 IGSO-4         
1 37763U 11038A   26070.71283906 -.00000101  00000+0  00000+0 0  9991
2 37763  54.5893 166.5556 0155038 231.0545 122.5808  1.00264489 53668
BEIDOU-2 IGSO-5         
1 37948U 11073A   26070.52086990 -.00000107  00000+0  00000+0 0  9994
2 37948  47.8556 272.7511 0108779 221.1293 317.8974  1.00271230 52153
LUCH-5A                 
1 37951U 11074B   26070.82043740 -.00000046  00000+0  00000+0 0  9990
2 37951   8.5056  75.2345 0003469 261.6760 295.0489  1.00268917 52072
LUCH-5B                 
1 38977U 12061A   26071.21349302 -.00000134  00000+0  00000+0 0  9991
2 38977  10.2747  50.8258 0003301 227.8370 311.7381  1.00272061 48635
SBIRS GEO-2 (USA 241)   
1 39120U 13011A   26070.92007767 -.00000284  00000+0  00000+0 0  9997
2 39120   4.2783  52.3911 0002239 297.2305 101.3660  1.00271763 47562
LUCH-5V                 
1 39727U 14023A   26071.02004380 -.00000266  00000+0  00000+0 0  9994
2 39727   4.8928  70.6943 0003131 295.3056 265.5873  1.00269843 43385
BEIDOU-3S IGSO-1S       
1 40549U 15019A   26070.59237021 -.00000147  00000+0  00000+0 0  9993
2 40549  49.3768 296.6370 0035532 190.3587 351.9385  1.00272878 40097
BEIDOU-2 IGSO-6         
1 41434U 16021A   26070.87699223 -.00000131  00000+0  00000+0 0  9991
2 41434  60.0969  39.0050 0059566 233.2714 308.7278  1.00277411 36500
SBIRS GEO-4 (USA 273)   
1 41937U 17004A   26071.13586280  .00000125  00000+0  00000+0 0  9991
2 41937   2.0621  40.3110 0002308 316.0520 243.2237  1.00273025 33623
BEIDOU-2 IGSO-7         
1 43539U 18057A   26070.66725053 -.00000156  00000+0  00000+0 0  9995
2 43539  55.1863 163.9124 0100539 236.8206 121.4718  1.00281075 28148
BEIDOU-3 IGSO-1         
1 44204U 19023A   26070.81073068 -.00000189  00000+0  00000+0 0  9994
2 44204  58.5642  38.6507 0025765 236.0850 305.5935  1.00269078  6238
BEIDOU-3 IGSO-2         
1 44337U 19035A   26057.68879618 -.00000176  00000+0  00000+0 0  9995
2 44337  55.2338 159.8353 0038734 206.4752 153.7223  1.00247364 24561
BEIDOU-3 IGSO-3         
1 44709U 19073A   26069.98346678 -.00000143  00000+0  00000+0 0  9995
2 44709  54.9673 281.9576 0040728 188.7089 171.2538  1.00267242 23477
SBIRS GEO-5 (USA 315)   
1 48618U 21042A   26070.84561596 -.00000263  00000+0  00000+0 0  9995
2 48618   5.2280 328.3802 0001270  27.6658 211.6504  1.00271937 17799
SBIRS GEO-6 (USA 336)   
1 53355U 22092A   26070.95751784 -.00000289  00000+0  00000+0 0  9995
2 53355   3.4254 315.9281 0002129  37.5335 299.8346  1.00272445 13257
